[{"OBJECT_NAME":"STARLINK-4548","OBJECT_ID":"2022-097AV","EPOCH":"2026-03-09T18:49:06.736800","MEAN_MOTION":15.08842722,"ECCENTRICITY":0.00010032,"INCLINATION":53.2161,"RA_OF_ASC_NODE":103.3107,"ARG_OF_PERICENTER":77.9974,"MEAN_ANOMALY":282.1131,"EPHEMERIS_TYPE":0,"CLASSIFICATION_TYPE":"U","NORAD_CAT_ID":53431,"ELEMENT_SET_NO":999,"REV_AT_EPOCH":19880,"BSTAR":-3.508286e-5,"MEAN_MOTION_DOT":-8.46e-6,"MEAN_MOTION_DDOT":0},{"OBJECT_NAME":"SITRO-AIS 25","OBJECT_ID":"2024-039R","EPOCH":"2026-03-09T23:42:54.414720","MEAN_MOTION":14.92631971,"ECCENTRICITY":0.01453919,"INCLINATION":95.3931,"RA_OF_ASC_NODE":166.9537,"ARG_OF_PERICENTER":315.2559,"MEAN_ANOMALY":43.701,"EPHEMERIS_TYPE":0,"CLASSIFICATION_TYPE":"U","NORAD_CAT_ID":59066,"ELEMENT_SET_NO":999,"REV_AT_EPOCH":10992,"BSTAR":0.00036753428,"MEAN_MOTION_DOT":4.616e-5,"MEAN_MOTION_DDOT":0}]
